{
  "type": "FeatureCollection",
  "features": [
    {
      "type": "Feature",
      "properties": {
        "norad_id": 31177,
        "name": "FENGYUN 1C DEB",
        "group": "fengyun-1c-debris",
        "lat": -62.912001639760526,
        "lon": -91.13881977595133,
        "alt_km": 864.2442451928082,
        "timestamp": "2025-12-02T21:34:01.551804+00:00",
        "meta_object_name": "FENGYUN 1C DEB",
        "meta_object_id": "1999-025BJF",
        "meta_epoch": "2025-12-01T06:04:03.773280",
        "meta_mean_motion": 13.62101426,
        "meta_eccentricity": 0.0311511,
        "meta_inclination": 98.7576,
        "meta_ra_of_asc_node": 249.8401,
        "meta_arg_of_pericenter": 343.5186,
        "meta_mean_anomaly": 168.581,
        "meta_ephemeris_type": 0,
        "meta_classification_type": "U",
        "meta_norad_cat_id": 31177,
        "meta_element_set_no": 999,
        "meta_rev_at_epoch": 66055,
        "meta_bstar": 0.0077346,
        "meta_mean_motion_dot": 8.228e-05,
        "meta_mean_motion_ddot": 0,
        "tle_line1": "1 31177U 99025BJF 25335.25282145  .00008228  00000+0  77346-2 0  9999",
        "tle_line2": "2 31177  98.7576 249.8401 0311511 343.5186 168.5810 13.62101426660550"
      },
      "geometry": {
        "type": "Point",
        "coordinates": [
          -91.13881977595133,
          -62.912001639760526
        ]
      }
    },
    {
      "type": "Feature",
      "properties": {
        "norad_id": 31178,
        "name": "FENGYUN 1C DEB",
        "group": "fengyun-1c-debris",
        "lat": 52.86624282215744,
        "lon": -34.4296793996754,
        "alt_km": 782.2010725225919,
        "timestamp": "2025-12-02T21:34:01.551814+00:00",
        "meta_object_name": "FENGYUN 1C DEB",
        "meta_object_id": "1999-025BJG",
        "meta_epoch": "2025-12-02T06:07:16.142016",
        "meta_mean_motion": 14.2203149,
        "meta_eccentricity": 0.0126509,
        "meta_inclination": 99.513,
        "meta_ra_of_asc_node": 337.6705,
        "meta_arg_of_pericenter": 345.2018,
        "meta_mean_anomaly": 14.5468,
        "meta_ephemeris_type": 0,
        "meta_classification_type": "U",
        "meta_norad_cat_id": 31178,
        "meta_element_set_no": 999,
        "meta_rev_at_epoch": 95666,
        "meta_bstar": 0.0025713,
        "meta_mean_motion_dot": 6.122e-05,
        "meta_mean_motion_ddot": 0,
        "tle_line1": "1 31178U 99025BJG 25336.25504794  .00006122  00000+0  25713-2 0  9990",
        "tle_line2": "2 31178  99.5130 337.6705 0126509 345.2018  14.5468 14.22031490956662"
      },
      "geometry": {
        "type": "Point",
        "coordinates": [
          -34.4296793996754,
          52.86624282215744
        ]
      }
    },
    {
      "type": "Feature",
      "properties": {
        "norad_id": 31179,
        "name": "FENGYUN 1C DEB",
        "group": "fengyun-1c-debris",
        "lat": -68.70015442016178,
        "lon": 153.04235915198882,
        "alt_km": 1042.973993399154,
        "timestamp": "2025-12-02T21:34:01.551824+00:00",
        "meta_object_name": "FENGYUN 1C DEB",
        "meta_object_id": "1999-025BJH",
        "meta_epoch": "2025-12-01T18:29:09.804768",
        "meta_mean_motion": 13.91871594,
        "meta_eccentricity": 0.02157835,
        "meta_inclination": 99.0208,
        "meta_ra_of_asc_node": 355.9885,
        "meta_arg_of_pericenter": 30.6917,
        "meta_mean_anomaly": 330.6661,
        "meta_ephemeris_type": 0,
        "meta_classification_type": "U",
        "meta_norad_cat_id": 31179,
        "meta_element_set_no": 999,
        "meta_rev_at_epoch": 61788,
        "meta_bstar": 0.0011957084,
        "meta_mean_motion_dot": 1.8e-05,
        "meta_mean_motion_ddot": 0,
        "tle_line1": "1 31179U 99025BJH 25335.77025237  .00001800  00000+0  11957-2 0  9990",
        "tle_line2": "2 31179  99.0208 355.9885 0215783  30.6917 330.6661 13.91871594617889"
      },
      "geometry": {
        "type": "Point",
        "coordinates": [
          153.04235915198882,
          -68.70015442016178
        ]
      }
    },
    {
      "type": "Feature",
      "properties": {
        "norad_id": 31180,
        "name": "FENGYUN 1C DEB",
        "group": "fengyun-1c-debris",
        "lat": 39.71812756844787,
        "lon": 101.04996942540308,
        "alt_km": 727.9061769734881,
        "timestamp": "2025-12-02T21:34:01.551833+00:00",
        "meta_object_name": "FENGYUN 1C DEB",
        "meta_object_id": "1999-025BJJ",
        "meta_epoch": "2025-11-30T15:08:19.454208",
        "meta_mean_motion": 13.70323575,
        "meta_eccentricity": 0.0498477,
        "meta_inclination": 99.2169,
        "meta_ra_of_asc_node": 106.6187,
        "meta_arg_of_pericenter": 91.7474,
        "meta_mean_anomaly": 290.9094,
        "meta_ephemeris_type": 0,
        "meta_classification_type": "U",
        "meta_norad_cat_id": 31180,
        "meta_element_set_no": 999,
        "meta_rev_at_epoch": 63901,
        "meta_bstar": 0.00026447,
        "meta_mean_motion_dot": 5.24e-06,
        "meta_mean_motion_ddot": 0,
        "tle_line1": "1 31180U 99025BJJ 25334.63078072  .00000524  00000+0  26447-3 0  9994",
        "tle_line2": "2 31180  99.2169 106.6187 0498477  91.7474 290.9094 13.70323575639019"
      },
      "geometry": {
        "type": "Point",
        "coordinates": [
          101.04996942540308,
          39.71812756844787
        ]
      }
    },
    {
      "type": "Feature",
      "properties": {
        "norad_id": 31181,
        "name": "FENGYUN 1C DEB",
        "group": "fengyun-1c-debris",
        "lat": -79.03098642704877,
        "lon": 136.80488416224728,
        "alt_km": 893.807308262667,
        "timestamp": "2025-12-02T21:34:01.551843+00:00",
        "meta_object_name": "FENGYUN 1C DEB",
        "meta_object_id": "1999-025BJK",
        "meta_epoch": "2025-11-26T13:40:01.687872",
        "meta_mean_motion": 14.11809177,
        "meta_eccentricity": 0.00486382,
        "meta_inclination": 98.7773,
        "meta_ra_of_asc_node": 3.4699,
        "meta_arg_of_pericenter": 119.5671,
        "meta_mean_anomaly": 33.2423,
        "meta_ephemeris_type": 0,
        "meta_classification_type": "U",
        "meta_norad_cat_id": 31181,
        "meta_element_set_no": 999,
        "meta_rev_at_epoch": 95539,
        "meta_bstar": 0.0010936699,
        "meta_mean_motion_dot": 1.975e-05,
        "meta_mean_motion_ddot": 0,
        "tle_line1": "1 31181U 99025BJK 25330.56946398  .00001975  00000+0  10937-2 0  9995",
        "tle_line2": "2 31181  98.7773   3.4699 0048638 119.5671  33.2423 14.11809177955394"
      },
      "geometry": {
        "type": "Point",
        "coordinates": [
          136.80488416224728,
          -79.03098642704877
        ]
      }
    },
    {
      "type": "Feature",
      "properties": {
        "norad_id": 31182,
        "name": "FENGYUN 1C DEB",
        "group": "fengyun-1c-debris",
        "lat": -38.533686977104885,
        "lon": -26.963955084265766,
        "alt_km": 865.3224387180162,
        "timestamp": "2025-12-02T21:34:01.551853+00:00",
        "meta_object_name": "FENGYUN 1C DEB",
        "meta_object_id": "1999-025BJL",
        "meta_epoch": "2025-11-30T19:23:45.055104",
        "meta_mean_motion": 14.14526628,
        "meta_eccentricity": 0.00226562,
        "meta_inclination": 98.6809,
        "meta_ra_of_asc_node": 324.0155,
        "meta_arg_of_pericenter": 170.3323,
        "meta_mean_anomaly": 311.2725,
        "meta_ephemeris_type": 0,
        "meta_classification_type": "U",
        "meta_norad_cat_id": 31182,
        "meta_element_set_no": 999,
        "meta_rev_at_epoch": 95912,
        "meta_bstar": 0.00037537528,
        "meta_mean_motion_dot": 6.79e-06,
        "meta_mean_motion_ddot": 0,
        "tle_line1": "1 31182U 99025BJL 25334.80816036  .00000679  00000+0  37538-3 0  9999",
        "tle_line2": "2 31182  98.6809 324.0155 0022656 170.3323 311.2725 14.14526628959123"
      },
      "geometry": {
        "type": "Point",
        "coordinates": [
          -26.963955084265766,
          -38.533686977104885
        ]
      }
    },
    {
      "type": "Feature",
      "properties": {
        "norad_id": 31183,
        "name": "FENGYUN 1C DEB",
        "group": "fengyun-1c-debris",
        "lat": 43.6382714414506,
        "lon": -48.79907980235984,
        "alt_km": 722.0899868771467,
        "timestamp": "2025-12-02T21:34:01.551863+00:00",
        "meta_object_name": "FENGYUN 1C DEB",
        "meta_object_id": "1999-025BJM",
        "meta_epoch": "2025-12-02T10:28:09.992928",
        "meta_mean_motion": 14.50278724,
        "meta_eccentricity": 0.0047006,
        "meta_inclination": 99.0347,
        "meta_ra_of_asc_node": 319.4319,
        "meta_arg_of_pericenter": 137.8834,
        "meta_mean_anomaly": 14.2406,
        "meta_ephemeris_type": 0,
        "meta_classification_type": "U",
        "meta_norad_cat_id": 31183,
        "meta_element_set_no": 999,
        "meta_rev_at_epoch": 97333,
        "meta_bstar": 0.0014865,
        "meta_mean_motion_dot": 5.825e-05,
        "meta_mean_motion_ddot": 0,
        "tle_line1": "1 31183U 99025BJM 25336.43622677  .00005825  00000+0  14865-2 0  9992",
        "tle_line2": "2 31183  99.0347 319.4319 0047006 137.8834  14.2406 14.50278724973333"
      },
      "geometry": {
        "type": "Point",
        "coordinates": [
          -48.79907980235984,
          43.6382714414506
        ]
      }
    }
  ]
}